NORAD_CAT_ID,OBJECT_NAME,OBJECT_TYPE,EPOCH,MEAN_MOTION,ECCENTRICITY,INCLINATION,RA_OF_ASC_NODE,ARG_OF_PERICENTER,MEAN_ANOMALY,BSTAR,MEAN_MOTION_DOT,MEAN_MOTION_DDOT,TLE_LINE0,TLE_LINE1,TLE_LINE2,SEMIMAJOR_AXIS,PERIOD,APOGEE,PERIGEE,DECAYED
53591.0,STARLINK-4674,PAYLOAD,2024-06-29 21:02:14,15.08825345,0.000148,53.2159,137.763,100.6062,259.5096,-6.1175e-05,-1.261e-05,0.0,0 STARLINK-4674,1 53591U 22104D   24181.87655124 -.00001261  00000-0 -61175-4 0  9992,2 53591  53.2159 137.7630 0001480 100.6062 259.5096 15.08825345102690,6917.925,95.438,540.814,538.766,0.0
53591.0,STARLINK-4674,PAYLOAD,2024-06-30 03:23:46,15.08831932,0.0001634,53.215,136.5717,106.9901,253.127,1.1815e-05,-1e-06,0.0,0 STARLINK-4674,1 53591U 22104D   24182.14150571 -.00000100  00000-0  11815-4 0  9995,2 53591  53.2150 136.5717 0001634 106.9901 253.1270 15.08831932101698,6917.905,95.438,540.9,538.64,0.0
53591.0,STARLINK-4674,PAYLOAD,2024-06-30 14:31:27,15.08837995,0.0001493,53.2168,134.4923,103.4225,256.6934,-4.469e-06,-3.59e-06,0.0,0 STARLINK-4674,1 53591U 22104D   24182.60518419 -.00000359  00000-0 -44690-5 0  9990,2 53591  53.2168 134.4923 0001493 103.4225 256.6934 15.08837995102801,6917.887,95.438,540.784,538.719,0.0
53591.0,STARLINK-4674,PAYLOAD,2024-07-01 03:14:32,15.08848197,0.0001427,53.2147,132.1134,104.0861,256.029,0.00017143,2.442e-05,0.0,0 STARLINK-4674,1 53591U 22104D   24183.13509715  .00002442  00000-0  17143-3 0  9992,2 53591  53.2147 132.1134 0001427 104.0861 256.0290 15.08848197101845,6917.855,95.437,540.708,538.733,0.0
53591.0,STARLINK-4674,PAYLOAD,2024-07-01 20:43:47,15.08834777,0.0001754,53.2152,128.8419,108.9218,251.1964,0.00017789,2.544e-05,0.0,0 STARLINK-4674,1 53591U 22104D   24183.86374601  .00002544  00000-0  17789-3 0  9995,2 53591  53.2152 128.8419 0001754 108.9218 251.1964 15.08834777101956,6917.896,95.438,540.975,538.548,0.0
53591.0,STARLINK-4674,PAYLOAD,2024-07-02 03:05:20,15.08832755,0.0001296,53.2158,127.6538,102.6749,257.4388,0.0002074,3.014e-05,0.0,0 STARLINK-4674,1 53591U 22104D   24184.12870536  .00003014  00000-0  20740-3 0  9997,2 53591  53.2158 127.6538 0001296 102.6749 257.4388 15.08832755103036,6917.903,95.438,540.664,538.871,0.0
53591.0,STARLINK-4674,PAYLOAD,2024-07-02 20:34:34,15.08837057,0.000135,53.2162,124.3842,96.6679,263.4467,1.8782e-05,1.1e-07,0.0,0 STARLINK-4674,1 53591U 22104D   24184.85734645  .00000011  00000-0  18782-4 0  9995,2 53591  53.2162 124.3842 0001350  96.6679 263.4467 15.08837057103145,6917.889,95.438,540.688,538.82,0.0
53591.0,STARLINK-4674,PAYLOAD,2024-07-03 02:56:07,15.0884017,0.0001243,53.2177,123.1963,95.2801,264.8333,9.6687e-05,1.251e-05,0.0,0 STARLINK-4674,1 53591U 22104D   24185.12230519  .00001251  00000-0  96687-4 0  9994,2 53591  53.2177 123.1963 0001243  95.2801 264.8333 15.08840170102141,6917.88,95.438,540.605,538.885,0.0
53591.0,STARLINK-4674,PAYLOAD,2024-07-03 12:28:26,15.08839578,0.0001313,53.216,121.411,100.293,259.821,2.8789e-05,1.7e-06,0.0,0 STARLINK-4674,1 53591U 22104D   24185.51974625  .00000170  00000-0  28789-4 0  9997,2 53591  53.2160 121.4110 0001313 100.2930 259.8210 15.08839578103246,6917.882,95.438,540.655,538.838,0.0
53591.0,STARLINK-4674,PAYLOAD,2024-07-04 02:46:54,15.08835132,0.0001305,53.2169,118.7357,95.4533,264.6608,7.6429e-05,9.29e-06,0.0,0 STARLINK-4674,1 53591U 22104D   24186.11591056  .00000929  00000-0  76429-4 0  9993,2 53591  53.2169 118.7357 0001305  95.4533 264.6608 15.08835132102293,6917.895,95.438,540.663,538.857,0.0
53591.0,STARLINK-4674,PAYLOAD,2024-07-04 12:19:13,15.08842211,0.0001482,53.2179,116.9517,98.4484,261.6676,9.1979e-05,1.176e-05,0.0,0 STARLINK-4674,1 53591U 22104D   24186.51334527  .00001176  00000-0  91979-4 0  9997,2 53591  53.2179 116.9517 0001482  98.4484 261.6676 15.08842211102351,6917.874,95.437,540.764,538.713,0.0
53591.0,STARLINK-4674,PAYLOAD,2024-07-04 18:40:45,15.08840586,0.0001462,53.2183,115.763,94.6136,265.5023,0.0001014,1.326e-05,0.0,0 STARLINK-4674,1 53591U 22104D   24186.77830709  .00001326  00000-0  10140-3 0  9995,2 53591  53.2183 115.7630 0001462  94.6136 265.5023 15.08840586103431,6917.879,95.438,540.755,538.732,0.0
53591.0,STARLINK-4674,PAYLOAD,2024-07-05 12:10:00,15.08841742,0.0001648,53.2175,112.4907,85.3932,274.7248,9.0633e-05,1.155e-05,0.0,0 STARLINK-4674,1 53591U 22104D   24187.50694724  .00001155  00000-0  90633-4 0  9998,2 53591  53.2175 112.4907 0001648  85.3932 274.7248 15.08841742103548,6917.875,95.437,540.88,538.6,0.0
53591.0,STARLINK-4674,PAYLOAD,2024-07-06 04:03:51,15.08845285,0.0001518,53.2177,109.5147,82.4859,277.6306,4.9061e-05,4.93e-06,0.0,0 STARLINK-4674,1 53591U 22104D   24188.16934646  .00000493  00000-0  49061-4 0  9994,2 53591  53.2177 109.5147 0001518  82.4859 277.6306 15.08845285102604,6917.864,95.437,540.779,538.679,0.0
53591.0,STARLINK-4674,PAYLOAD,2024-07-06 12:00:47,15.08838172,0.000138,53.2174,108.0268,88.239,271.876,-1.2676e-05,-4.9e-06,0.0,0 STARLINK-4674,1 53591U 22104D   24188.50055097 -.00000490  00000-0 -12676-4 0  9997,2 53591  53.2174 108.0268 0001380  88.2390 271.8760 15.08838172102652,6917.886,95.438,540.706,538.796,0.0
53591.0,STARLINK-4674,PAYLOAD,2024-07-07 03:54:38,15.08847771,0.0001369,53.217,105.0504,115.4496,244.6638,-4.32e-06,-3.57e-06,0.0,0 STARLINK-4674,1 53591U 22104D   24189.16294391 -.00000357  00000-0 -43200-5 0  9992,2 53591  53.2170 105.0504 0001369 115.4496 244.6638 15.08847771102753,6917.857,95.437,540.669,538.775,0.0
53591.0,STARLINK-4674,PAYLOAD,2024-07-08 11:42:21,15.08843023,0.000168,53.2188,99.1063,88.1549,271.9636,3.0639e-05,2e-06,0.0,0 STARLINK-4674,1 53591U 22104D   24190.48774819  .00000200  00000-0  30639-4 0  9993,2 53591  53.2188  99.1063 0001680  88.1549 271.9636 15.08843023102955,6917.871,95.437,540.898,538.574,0.0
53591.0,STARLINK-4674,PAYLOAD,2024-07-08 22:50:03,15.08842327,0.0001458,53.2185,97.0232,102.0761,258.0395,6.9859e-05,8.24e-06,0.0,0 STARLINK-4674,1 53591U 22104D   24190.95142641  .00000824  00000-0  69859-4 0  9995,2 53591  53.2185  97.0232 0001458 102.0761 258.0395 15.08842327104060,6917.873,95.437,540.747,538.73,0.0
53591.0,STARLINK-4674,PAYLOAD,2024-07-09 03:36:12,15.08847764,0.0001471,53.2193,96.1311,105.3018,254.8137,6.2163e-05,7.02e-06,0.0,0 STARLINK-4674,1 53591U 22104D   24191.15014274  .00000702  00000-0  62163-4 0  9994,2 53591  53.2193  96.1311 0001471 105.3018 254.8137 15.08847764104094,6917.857,95.437,540.739,538.704,0.0
53591.0,STARLINK-4674,PAYLOAD,2024-07-09 21:05:27,15.08836515,0.0001555,53.2187,92.8608,108.0958,252.0203,-2.701e-05,-7.18e-06,0.0,0 STARLINK-4674,1 53591U 22104D   24191.87879418 -.00000718  00000-0 -27010-4 0  9993,2 53591  53.2187  92.8608 0001555 108.0958 252.0203 15.08836515103168,6917.891,95.438,540.832,538.68,0.0
53591.0,STARLINK-4674,PAYLOAD,2024-07-09 22:40:50,15.08837079,0.0001606,53.2187,92.5634,108.3276,251.7891,-2.1927e-05,-6.37e-06,0.0,0 STARLINK-4674,1 53591U 22104D   24191.94503378 -.00000637  00000-0 -21927-4 0  9991,2 53591  53.2187  92.5634 0001606 108.3276 251.7891 15.08837079104219,6917.889,95.438,540.865,538.643,0.0
53591.0,STARLINK-4674,PAYLOAD,2024-07-10 09:48:32,15.08838399,0.000138,53.218,90.4828,91.6238,268.4912,-7.9382e-06,-4.14e-06,0.0,0 STARLINK-4674,1 53591U 22104D   24192.40871375 -.00000414  00000-0 -79382-5 0  9990,2 53591  53.2180  90.4828 0001380  91.6238 268.4912 15.08838399104287,6917.885,95.438,540.705,538.796,0.0
53591.0,STARLINK-4674,PAYLOAD,2024-07-10 22:31:37,15.08842901,0.0001417,53.2183,88.1063,93.6009,266.5145,7.3284e-05,8.79e-06,0.0,0 STARLINK-4674,1 53591U 22104D   24192.93863031  .00000879  00000-0  73284-4 0  9995,2 53591  53.2183  88.1063 0001417  93.6009 266.5145 15.08842901104364,6917.872,95.437,540.717,538.756,0.0
53591.0,STARLINK-4674,PAYLOAD,2024-07-11 03:17:46,15.08851357,0.0001383,53.2183,87.2133,90.7569,269.3582,8.1257e-05,1.006e-05,0.0,0 STARLINK-4674,1 53591U 22104D   24193.13734478  .00001006  00000-0  81257-4 0  9992,2 53591  53.2183  87.2133 0001383  90.7569 269.3582 15.08851357103352,6917.846,95.437,540.667,538.754,0.0
53591.0,STARLINK-4674,PAYLOAD,2024-07-12 09:30:07,15.08836436,0.0001491,53.2183,81.561,79.54,280.576,5.1519e-05,5.32e-06,0.0,0 STARLINK-4674,1 53591U 22104D   24194.39591797  .00000532  00000-0  51519-4 0  9997,2 53591  53.2183  81.5610 0001491  79.5400 280.5760 15.08836436103543,6917.891,95.438,540.788,538.725,0.0
53591.0,STARLINK-4674,PAYLOAD,2024-07-12 22:13:12,15.08841849,0.0001598,53.2181,79.1865,93.4562,266.6613,1.5808e-05,-3.6e-07,0.0,0 STARLINK-4674,1 53591U 22104D   24194.92583707 -.00000036  00000-0  15808-4 0  9999,2 53591  53.2181  79.1865 0001598  93.4562 266.6613 15.08841849104668,6917.875,95.437,540.845,538.634,0.0
53591.0,STARLINK-4674,PAYLOAD,2024-07-13 01:23:57,15.08849987,0.0001422,53.2177,78.5868,96.6601,263.4553,7.0366e-05,8.32e-06,0.0,0 STARLINK-4674,1 53591U 22104D   24195.05830843  .00000832  00000-0  70366-4 0  9993,2 53591  53.2177  78.5868 0001422  96.6601 263.4553 15.08849987103640,6917.85,95.437,540.699,538.731,0.0
53591.0,STARLINK-4674,PAYLOAD,2024-07-13 09:20:54,15.08840906,0.0001472,53.2184,77.1014,101.2135,258.9022,-1.3416e-05,-5.01e-06,0.0,0 STARLINK-4674,1 53591U 22104D   24195.38951462 -.00000501  00000-0 -13416-4 0  9998,2 53591  53.2184  77.1014 0001472 101.2135 258.9022 15.08840906103693,6917.878,95.437,540.761,538.724,0.0
53591.0,STARLINK-4674,PAYLOAD,2024-07-13 22:03:59,15.08837173,0.0001374,53.218,74.726,90.8993,269.2156,6.4537e-05,7.39e-06,0.0,0 STARLINK-4674,1 53591U 22104D   24195.91943780  .00000739  00000-0  64537-4 0  9992,2 53591  53.2180  74.7260 0001374  90.8993 269.2156 15.08837173104811,6917.889,95.438,540.705,538.804,0.0
53591.0,STARLINK-4674,PAYLOAD,2024-07-14 01:14:44,15.08849962,0.0001609,53.2182,74.1309,89.5618,270.5558,0.00016585,2.353e-05,0.0,0 STARLINK-4674,1 53591U 22104D   24196.05190740  .00002353  00000-0  16585-3 0  9991,2 53591  53.2182  74.1309 0001609  89.5618 270.5558 15.08849962103797,6917.85,95.437,540.828,538.602,0.0
